STARLINK-2472           
1 48130U 21027AQ  26131.98563449  .00001592  00000+0  63045-4 0  9997
2 48130  53.1603 233.8518 0001022  89.8684 270.2434 15.31703795282177
STARLINK-2473           
1 48131U 21027AR  26132.25166167  .00006218  00000+0  22190-3 0  9990
2 48131  53.1589 217.2687 0001062  96.6797 263.4325 15.30200174282411
STARLINK-2474           
1 48132U 21027AS  26132.31682779  .00001749  00000+0  68082-4 0  9995
2 48132  53.1585 231.9072 0001258  89.9499 270.1647 15.31707801282210
STARLINK-2475           
1 48133U 21027AT  26132.26955902  .00003177  00000+0  11407-3 0  9996
2 48133  53.1594 229.7365 0001153  94.1018 266.0116 15.31709842282256
STARLINK-2476           
1 48134U 21027AU  26131.98058631  .00004473  00000+0  15586-3 0  9990
2 48134  53.1592 230.9373 0001452  89.2118 270.9050 15.31691171282207
STARLINK-2478           
1 48135U 21027AV  26132.25626313  .00001825  00000+0  70543-4 0  9993
2 48135  53.1590 232.3698 0001138  74.9597 285.1531 15.31707924282212
STARLINK-2479           
1 48136U 21027AW  26131.96662804  .00001955  00000+0  74724-4 0  9995
2 48136  53.1604 231.2998 0001276  83.1192 276.9955 15.31711022282207
STARLINK-2480           
1 48137U 21027AX  26132.24294508  .00006109  00000+0  25445-3 0  9991
2 48137  53.1428 219.7040 0000747  58.5150 301.5921 15.25055185282373
STARLINK-2481           
1 48138U 21027AY  26132.30750267  .00002498  00000+0  92188-4 0  9994
2 48138  53.1593 231.9276 0001254  83.7383 276.3762 15.31711975282225
STARLINK-2482           
1 48139U 21027AZ  26132.27154870 -.00094812  00000+0 -31498-2 0  9997
2 48139  53.1610 217.0760 0009623  99.1721 261.0369 15.30952567282423
STARLINK-2483           
1 48140U 21027BA  26132.25095117 -.00001472  00000+0 -35671-4 0  9994
2 48140  53.1582 230.1073 0001382  93.2204 266.8955 15.31706986282248
STARLINK-2485           
1 48142U 21027BC  26132.23360646  .00000908  00000+0  41000-4 0  9990
2 48142  53.1619 217.5588 0001041  92.4008 267.7112 15.31702592282419
STARLINK-2486           
1 48143U 21027BD  26132.28757372  .00019747  00000+0  56320-3 0  9993
2 48143  53.1595 164.4574 0005438   8.0428 352.0661 15.36070547283164
STARLINK-2487           
1 48144U 21027BE  26132.25216817  .00001682  00000+0  65918-4 0  9998
2 48144  53.1610 216.9256 0001187  85.3356 274.7781 15.31714058282415
STARLINK-2491           
1 48148U 21027BJ  26132.00002315 -.00008750  00000+0 -27050-3 0  9990
2 48148  53.1607 231.3146 0001050  69.2664 294.9536 15.31704927  5763
STARLINK-2492           
1 48149U 21027BK  26132.26007727  .00001465  00000+0  61579-4 0  9990
2 48149  53.1591 217.1708 0001189  97.5202 262.5934 15.30201455282416
STARLINK-2493           
1 48150U 21027BL  26132.26143227  .00157937  00000+0  50911-2 0  9990
2 48150  53.1577 217.1400 0002696 107.9551 252.1744 15.31083312282424
STARLINK-2503           
1 48151U 21027BM  26132.25718917  .00005770  00000+0  19744-3 0  9991
2 48151  53.1592 217.0700 0001078  93.1663 266.9461 15.31719794282426
SHIYAN-6 03 (SY-6 03)   
1 48157U 21028A   26132.28279771 -.00000018  00000+0  27476-4 0  9994
2 48157  99.5295 146.0745 0046290 179.9464 180.1699 13.77598655254566
ONEWEB-0176             
1 48210U 21031A   26132.17526277 -.00000422  00000+0 -11740-2 0  9997
2 48210  87.8932 296.8838 0001692  92.9958 267.1365 13.14501608243589
ONEWEB-0184             
1 48211U 21031B   26131.91996110  .00000101  00000+0  23907-3 0  9997
2 48211  87.8944 296.9327 0001427  67.7274 292.4007 13.14503149243524
ONEWEB-0179             
1 48212U 21031C   26132.33334491  .00295884  00000+0  10767+0 0  9993
2 48212  87.8953 295.6089 0200216  14.8152 197.7523 14.20804754  5318
ONEWEB-0180             
1 48213U 21031D   26132.15149280  .00000121  00000+0  29162-3 0  9995
2 48213  87.8934 296.8844 0001331 101.0715 259.0565 13.14503443243484
ONEWEB-0218             
1 48214U 21031E   26132.17367988 -.00000209  00000+0 -59759-3 0  9999
2 48214  87.8935 296.8783 0001109  70.4822 289.6427 13.14504144243642
ONEWEB-0209             
1 48215U 21031F   26132.16260049 -.00000072  00000+0 -22943-3 0  9992
2 48215  87.8922 296.9013 0001622 100.3568 259.7744 13.14502823243648
ONEWEB-0198             
1 48216U 21031G   26131.91851513  .00000145  00000+0  35531-3 0  9993
2 48216  87.8923 296.9509 0001313  94.9711 265.1569 13.14503149243722
ONEWEB-0189             
1 48217U 21031H   26132.15941918 -.00000067  00000+0 -21397-3 0  9990
2 48217  87.8936 296.8848 0001413  94.2673 265.8618 13.14503073243495
ONEWEB-0196             
1 48218U 21031J   26132.21332080  .00000242  00000+0  61823-3 0  9993
2 48218  87.8930 296.8838 0001605  97.0656 263.0656 13.14504585243507
ONEWEB-0183             
1 48219U 21031K   26132.18794978 -.00000054  00000+0 -18151-3 0  9997
2 48219  87.8927 296.8875 0001895 100.8110 259.3233 13.14504333243593
ONEWEB-0185             
1 48220U 21031L   26132.21412485  .00000271  00000+0  69691-3 0  9997
2 48220  87.8940 296.8727 0001756 109.2880 250.8439 13.14504420243523
