OBJECT_NAME,OBJECT_ID,EPOCH,MEAN_MOTION,ECCENTRICITY,INCLINATION,RA_OF_ASC_NODE,ARG_OF_PERICENTER,MEAN_ANOMALY,EPHEMERIS_TYPE,CLASSIFICATION_TYPE,NORAD_CAT_ID,ELEMENT_SET_NO,REV_AT_EPOCH,BSTAR,MEAN_MOTION_DOT,MEAN_MOTION_DDOT
STARLINK-2472,2021-027AQ,2026-05-11T23:39:18.819936,15.31703795,.00010222,53.1603,233.8518,89.8684,270.2434,0,U,48130,999,28217,.63045307E-4,.1592E-4,0
STARLINK-2473,2021-027AR,2026-05-12T06:02:23.568288,15.30200174,.00010629,53.1589,217.2687,96.6797,263.4325,0,U,48131,999,28241,.22189733E-3,.6218E-4,0
STARLINK-2474,2021-027AS,2026-05-12T07:36:13.921056,15.31707801,.00012585,53.1585,231.9072,89.9499,270.1647,0,U,48132,999,28221,.68081752E-4,.1749E-4,0
STARLINK-2475,2021-027AT,2026-05-12T06:28:09.899328,15.31709842,.0001153,53.1594,229.7365,94.1018,266.0116,0,U,48133,999,28225,.11407496E-3,.3177E-4,0
STARLINK-2476,2021-027AU,2026-05-11T23:32:02.657184,15.31691171,.00014522,53.1592,230.9373,89.2118,270.9050,0,U,48134,999,28220,.15586359E-3,.4473E-4,0
STARLINK-2478,2021-027AV,2026-05-12T06:09:01.134432,15.31707924,.00011381,53.1590,232.3698,74.9597,285.1531,0,U,48135,999,28221,.70543326E-4,.1825E-4,0
STARLINK-2479,2021-027AW,2026-05-11T23:11:56.662656,15.31711022,.0001276,53.1604,231.2998,83.1192,276.9955,0,U,48136,999,28220,.74724234E-4,.1955E-4,0
STARLINK-2480,2021-027AX,2026-05-12T05:49:50.454912,15.25055185,.00007478,53.1428,219.7040,58.5150,301.5921,0,U,48137,999,28237,.25444962E-3,.6109E-4,0
STARLINK-2481,2021-027AY,2026-05-12T07:22:48.230688,15.31711975,.00012543,53.1593,231.9276,83.7383,276.3762,0,U,48138,999,28222,.92187623E-4,.2498E-4,0
STARLINK-2482,2021-027AZ,2026-05-12T06:31:01.807680,15.30952567,.00096232,53.1610,217.0760,99.1721,261.0369,0,U,48139,999,28242,-.31497743E-2,-.94812E-3,0
STARLINK-2483,2021-027BA,2026-05-12T06:01:22.181088,15.31706986,.00013826,53.1582,230.1073,93.2204,266.8955,0,U,48140,999,28224,-.35670579E-4,-.1472E-4,0
STARLINK-2485,2021-027BC,2026-05-12T05:36:23.598144,15.31702592,.00010411,53.1619,217.5588,92.4008,267.7112,0,U,48142,999,28241,.40999837E-4,.908E-5,0
STARLINK-2486,2021-027BD,2026-05-12T06:54:06.369408,15.36070547,.00054385,53.1595,164.4574,8.0428,352.0661,0,U,48143,999,28316,.5632017E-3,.19747E-3,0
STARLINK-2487,2021-027BE,2026-05-12T06:03:07.329888,15.31714058,.00011872,53.1610,216.9256,85.3356,274.7781,0,U,48144,999,28241,.65917988E-4,.1682E-4,0
STARLINK-2491,2021-027BJ,2026-05-12T00:00:02.000160,15.31704927,.00010504,53.1607,231.3146,69.2664,294.9536,0,U,48148,999,576,-.2704956E-3,-.875E-4,0
STARLINK-2492,2021-027BK,2026-05-12T06:14:30.676128,15.30201455,.00011893,53.1591,217.1708,97.5202,262.5934,0,U,48149,999,28241,.61579013E-4,.1465E-4,0
STARLINK-2493,2021-027BL,2026-05-12T06:16:27.748128,15.31083312,.00026965,53.1577,217.1400,107.9551,252.1744,0,U,48150,999,28242,.50910587E-2,.157937E-2,0
STARLINK-2503,2021-027BM,2026-05-12T06:10:21.144288,15.31719794,.00010785,53.1592,217.0700,93.1663,266.9461,0,U,48151,999,28242,.19743538E-3,.577E-4,0
SHIYAN-6 03 (SY-6 03),2021-028A,2026-05-12T06:47:13.722144,13.77598655,.00462907,99.5295,146.0745,179.9464,180.1699,0,U,48157,999,25456,.27476234E-4,-.18E-6,0
ONEWEB-0176,2021-031A,2026-05-12T04:12:22.703328,13.14501608,.00016924,87.8932,296.8838,92.9958,267.1365,0,U,48210,999,24358,-.11739816E-2,-.422E-5,0
ONEWEB-0184,2021-031B,2026-05-11T22:04:44.639040,13.14503149,.00014279,87.8944,296.9327,67.7274,292.4007,0,U,48211,999,24352,.23906762E-3,.101E-5,0
ONEWEB-0179,2021-031C,2026-05-12T08:00:01.000224,14.20804754,.02002164,87.8953,295.6089,14.8152,197.7523,0,U,48212,999,531,.10767164E+0,.295884E-2,0
ONEWEB-0180,2021-031D,2026-05-12T03:38:08.977920,13.14503443,.00013313,87.8934,296.8844,101.0715,259.0565,0,U,48213,999,24348,.2916171E-3,.121E-5,0
ONEWEB-0218,2021-031E,2026-05-12T04:10:05.941632,13.14504144,.00011096,87.8935,296.8783,70.4822,289.6427,0,U,48214,999,24364,-.59759105E-3,-.209E-5,0
ONEWEB-0209,2021-031F,2026-05-12T03:54:08.682336,13.14502823,.00016221,87.8922,296.9013,100.3568,259.7744,0,U,48215,999,24364,-.22943079E-3,-.72E-6,0
ONEWEB-0198,2021-031G,2026-05-11T22:02:39.707232,13.14503149,.0001313,87.8923,296.9509,94.9711,265.1569,0,U,48216,999,24372,.35531076E-3,.145E-5,0
ONEWEB-0189,2021-031H,2026-05-12T03:49:33.817152,13.14503073,.00014135,87.8936,296.8848,94.2673,265.8618,0,U,48217,999,24349,-.21397379E-3,-.67E-6,0
ONEWEB-0196,2021-031J,2026-05-12T05:07:10.917120,13.14504585,.0001605,87.8930,296.8838,97.0656,263.0656,0,U,48218,999,24350,.61822755E-3,.242E-5,0
ONEWEB-0183,2021-031K,2026-05-12T04:30:38.860992,13.14504333,.00018956,87.8927,296.8875,100.8110,259.3233,0,U,48219,999,24359,-.18151229E-3,-.54E-6,0
ONEWEB-0185,2021-031L,2026-05-12T05:08:20.387040,13.14504420,.00017563,87.8940,296.8727,109.2880,250.8439,0,U,48220,999,24352,.69691396E-3,.271E-5,0
